NORAD_CAT_ID,OBJECT_NAME,OBJECT_TYPE,EPOCH,MEAN_MOTION,ECCENTRICITY,INCLINATION,RA_OF_ASC_NODE,ARG_OF_PERICENTER,MEAN_ANOMALY,BSTAR,MEAN_MOTION_DOT,MEAN_MOTION_DDOT,TLE_LINE0,TLE_LINE1,TLE_LINE2,SEMIMAJOR_AXIS,PERIOD,APOGEE,PERIGEE,DECAYED
53907.0,STARLINK-5063,PAYLOAD,2023-05-13 02:03:30,15.08846974,0.0001062,53.2176,274.7307,79.7542,280.357,-2.2447e-06,-3.24e-06,0.0,0 STARLINK-5063,1 53907U 22119X   23133.08577094 -.00000324  00000-0 -22447-5 0  9996,2 53907  53.2176 274.7307 0001062  79.7542 280.3570 15.08846974 35536,6917.859,95.437,540.459,538.989,0.0
53907.0,STARLINK-5063,PAYLOAD,2023-05-13 13:11:13,15.08839755,0.0001118,53.2177,272.6551,97.2379,262.874,1.9304e-05,1.9e-07,0.0,0 STARLINK-5063,1 53907U 22119X   23133.54945723  .00000019  00000-0  19304-4 0  9991,2 53907  53.2177 272.6551 0001118  97.2379 262.8740 15.08839755 36028,6917.881,95.438,540.52,538.973,0.0
53907.0,STARLINK-5063,PAYLOAD,2023-05-13 16:21:59,15.0884125,0.0001089,53.2174,272.0604,98.1521,261.9595,6.2682e-06,-1.88e-06,0.0,0 STARLINK-5063,1 53907U 22119X   23133.68193683 -.00000188  00000-0  62682-5 0  9992,2 53907  53.2174 272.0604 0001089  98.1521 261.9595 15.08841250 35620,6917.877,95.437,540.495,538.988,0.0
53907.0,STARLINK-5063,PAYLOAD,2023-05-14 13:02:00,15.08833474,0.0001097,53.2168,268.195,107.5543,252.5569,-1.3554e-05,-5.03e-06,0.0,0 STARLINK-5063,1 53907U 22119X   23134.54306523 -.00000503  00000-0 -13554-4 0  9992,2 53907  53.2168 268.1950 0001097 107.5543 252.5569 15.08833474 36178,6917.9,95.438,540.524,539.006,0.0
53907.0,STARLINK-5063,PAYLOAD,2023-05-14 17:48:07,15.08864037,9.46e-05,53.2166,267.3024,88.2579,271.8521,0.00023623,3.476e-05,0.0,0 STARLINK-5063,1 53907U 22119X   23134.74175831  .00003476  00000-0  23623-3 0  9997,2 53907  53.2166 267.3024 0000946  88.2579 271.8521 15.08864037 35782,6917.807,95.436,540.326,539.017,0.0
53907.0,STARLINK-5063,PAYLOAD,2023-05-15 12:52:48,15.0882892,0.0001069,53.2164,263.7344,68.875,291.2356,-3.0163e-05,-7.68e-06,0.0,0 STARLINK-5063,1 53907U 22119X   23135.53667016 -.00000768  00000-0 -30163-4 0  9997,2 53907  53.2164 263.7344 0001069  68.8750 291.2356 15.08828920 36321,6917.914,95.438,540.519,539.04,0.0
53907.0,STARLINK-5063,PAYLOAD,2023-05-15 16:03:34,15.08834309,0.000108,53.2156,263.139,84.0999,276.0116,3.3013e-05,2.38e-06,0.0,0 STARLINK-5063,1 53907U 22119X   23135.66914508  .00000238  00000-0  33013-4 0  9999,2 53907  53.2156 263.1390 0001080  84.0999 276.0116 15.08834309 35923,6917.898,95.438,540.51,539.016,0.0
53907.0,STARLINK-5063,PAYLOAD,2023-05-16 12:43:34,15.08834487,0.0001064,53.2161,259.27,89.2305,270.8809,6.9525e-05,8.19e-06,0.0,0 STARLINK-5063,1 53907U 22119X   23136.53026602  .00000819  00000-0  69525-4 0  9997,2 53907  53.2161 259.2700 0001064  89.2305 270.8809 15.08834487 36479,6917.897,95.438,540.498,539.026,0.0
53907.0,STARLINK-5063,PAYLOAD,2023-05-16 17:29:43,15.08849494,0.0001079,53.2165,258.3765,111.0989,249.0118,4.6035e-06,-2.15e-06,0.0,0 STARLINK-5063,1 53907U 22119X   23136.72897853 -.00000215  00000-0  46035-5 0  9995,2 53907  53.2165 258.3765 0001079 111.0989 249.0118 15.08849494 36084,6917.851,95.437,540.463,538.97,0.0
53907.0,STARLINK-5063,PAYLOAD,2023-05-17 07:48:12,15.08836129,0.0001529,53.2153,255.6969,125.233,234.8805,4.1465e-05,3.72e-06,0.0,0 STARLINK-5063,1 53907U 22119X   23137.32514491  .00000372  00000-0  41465-4 0  9990,2 53907  53.2153 255.6969 0001529 125.2330 234.8805 15.08836129 36170,6917.892,95.438,540.815,538.699,0.0
53907.0,STARLINK-5063,PAYLOAD,2023-05-17 14:09:45,15.08832908,0.000112,53.2149,254.5124,104.8374,255.2742,0.00010913,1.449e-05,0.0,0 STARLINK-5063,1 53907U 22119X   23137.59010536  .00001449  00000-0  10913-3 0  9999,2 53907  53.2149 254.5124 0001120 104.8374 255.2742 15.08832908 36633,6917.902,95.438,540.542,538.992,0.0
53907.0,STARLINK-5063,PAYLOAD,2023-05-18 12:25:09,15.08842821,0.0001375,53.2154,250.349,84.5937,275.5212,-6.5238e-05,-1.326e-05,0.0,0 STARLINK-5063,1 53907U 22119X   23138.51746825 -.00001326  00000-0 -65238-4 0  9996,2 53907  53.2154 250.3490 0001375  84.5937 275.5212 15.08842821 36351,6917.872,95.437,540.688,538.786,0.0
53907.0,STARLINK-5063,PAYLOAD,2023-05-18 17:11:18,15.08838549,0.0001242,53.2165,249.4582,76.7946,283.3185,3.1242e-05,2.09e-06,0.0,0 STARLINK-5063,1 53907U 22119X   23138.71618721  .00000209  00000-0  31242-4 0  9996,2 53907  53.2165 249.4582 0001242  76.7946 283.3185 15.08838549 36808,6917.885,95.438,540.609,538.891,0.0
53907.0,STARLINK-5063,PAYLOAD,2023-05-19 17:02:04,15.08853415,0.0001214,53.216,244.9956,90.6656,269.4475,-5.8424e-05,-1.218e-05,0.0,0 STARLINK-5063,1 53907U 22119X   23139.70977920 -.00001218  00000-0 -58424-4 0  9999,2 53907  53.2160 244.9956 0001214  90.6656 269.4475 15.08853415 36536,6917.839,95.437,540.544,538.865,0.0
53907.0,STARLINK-5063,PAYLOAD,2023-05-20 10:31:19,15.08845365,0.0001403,53.2158,241.7226,97.4641,262.6511,8.887e-05,1.127e-05,0.0,0 STARLINK-5063,1 53907U 22119X   23140.43842139  .00001127  00000-0  88870-4 0  9999,2 53907  53.2158 241.7226 0001403  97.4641 262.6511 15.08845365 36640,6917.864,95.437,540.7,538.758,0.0
53907.0,STARLINK-5063,PAYLOAD,2023-05-20 13:42:05,15.08852254,0.0001232,53.2158,241.1288,81.5091,278.6041,0.00012312,1.673e-05,0.0,0 STARLINK-5063,1 53907U 22119X   23140.57089433  .00001673  00000-0  12312-3 0  9997,2 53907  53.2158 241.1288 0001232  81.5091 278.6041 15.08852254 36667,6917.843,95.437,540.56,538.856,0.0
53907.0,STARLINK-5063,PAYLOAD,2023-05-20 23:14:24,15.08846386,0.0001464,53.2165,239.3444,71.8509,288.2643,5.7387e-05,6.26e-06,0.0,0 STARLINK-5063,1 53907U 22119X   23140.96833897  .00000626  00000-0  57387-4 0  9990,2 53907  53.2165 239.3444 0001464  71.8509 288.2643 15.08846386 36722,6917.861,95.437,540.739,538.713,0.0
53907.0,STARLINK-5063,PAYLOAD,2023-05-21 08:46:44,15.08836566,0.0001246,53.2157,237.5612,94.7611,265.3524,-6.2627e-05,-1.284e-05,0.0,0 STARLINK-5063,1 53907U 22119X   23141.36578802 -.00001284  00000-0 -62627-4 0  9993,2 53907  53.2157 237.5612 0001246  94.7611 265.3524 15.08836566 36785,6917.891,95.438,540.618,538.894,0.0
53907.0,STARLINK-5063,PAYLOAD,2023-05-21 11:57:30,15.08840096,0.0001158,53.2161,236.9657,90.2946,269.8179,-2.8814e-05,-7.46e-06,0.0,0 STARLINK-5063,1 53907U 22119X   23141.49826443 -.00000746  00000-0 -28814-4 0  9996,2 53907  53.2161 236.9657 0001158  90.2946 269.8179 15.08840096 37224,6917.88,95.438,540.546,538.944,0.0
53907.0,STARLINK-5063,PAYLOAD,2023-05-22 10:12:54,15.08835169,0.0001102,53.2154,232.8058,91.018,269.0938,-0.00011368,-2.096e-05,0.0,0 STARLINK-5063,1 53907U 22119X   23142.42563288 -.00002096  00000-0 -11368-3 0  9990,2 53907  53.2154 232.8058 0001102  91.0180 269.0938 15.08835169 37369,6917.895,95.438,540.523,538.998,0.0
53907.0,STARLINK-5063,PAYLOAD,2023-05-22 13:23:40,15.0883741,0.0001107,53.2154,232.2112,89.9137,270.1982,-8.1826e-05,-1.59e-05,0.0,0 STARLINK-5063,1 53907U 22119X   23142.55811073 -.00001590  00000-0 -81826-4 0  9997,2 53907  53.2154 232.2112 0001107  89.9137 270.1982 15.08837410 36965,6917.888,95.438,540.519,538.987,0.0
53907.0,STARLINK-5063,PAYLOAD,2023-05-23 10:03:42,15.08819434,9.87e-05,53.2156,228.3448,101.3254,258.7849,0.00014768,2.062e-05,0.0,0 STARLINK-5063,1 53907U 22119X   23143.41923823  .00002062  00000-0  14768-3 0  9993,2 53907  53.2156 228.3448 0000987 101.3254 258.7849 15.08819434 37094,6917.943,95.439,540.491,539.125,0.0
53907.0,STARLINK-5063,PAYLOAD,2023-05-23 13:14:28,15.08833229,0.0001064,53.2157,227.7499,97.7375,262.3738,2.1385e-05,5.3e-07,0.0,0 STARLINK-5063,1 53907U 22119X   23143.55171393  .00000053  00000-0  21385-4 0  9997,2 53907  53.2157 227.7499 0001064  97.7375 262.3738 15.08833229 37112,6917.901,95.438,540.502,539.03,0.0
53907.0,STARLINK-5063,PAYLOAD,2023-05-23 22:46:46,15.08849067,0.0001023,53.2162,225.965,94.6253,265.4856,-0.0001372,-2.471e-05,0.0,0 STARLINK-5063,1 53907U 22119X   23143.94914929 -.00002471  00000-0 -13720-3 0  9991,2 53907  53.2162 225.9650 0001023  94.6253 265.4856 15.08849067 37171,6917.853,95.437,540.425,539.01,0.0
53907.0,STARLINK-5063,PAYLOAD,2023-05-24 13:05:14,15.08838948,0.000107,53.216,223.2896,83.5295,276.5819,9.3933e-05,1.207e-05,0.0,0 STARLINK-5063,1 53907U 22119X   23144.54531194  .00001207  00000-0  93933-4 0  9996,2 53907  53.2160 223.2896 0001070  83.5295 276.5819 15.08838948 37265,6917.884,95.438,540.489,539.008,0.0
53907.0,STARLINK-5063,PAYLOAD,2023-05-26 00:03:43,15.0884194,0.0001166,53.2158,216.7481,80.8522,279.2602,4.807e-05,4.77e-06,0.0,0 STARLINK-5063,1 53907U 22119X   23146.00259122  .00000477  00000-0  48070-4 0  9997,2 53907  53.2158 216.7481 0001166  80.8522 279.2602 15.08841940 37488,6917.874,95.437,540.546,538.933,0.0
53907.0,STARLINK-5063,PAYLOAD,2023-05-26 11:11:26,15.08841412,0.0001166,53.2157,214.6666,79.2642,280.8481,-1.8306e-05,-5.79e-06,0.0,0 STARLINK-5063,1 53907U 22119X   23146.46627330 -.00000579  00000-0 -18306-4 0  9991,2 53907  53.2157 214.6666 0001166  79.2642 280.8481 15.08841412 37975,6917.876,95.437,540.548,538.934,0.0
53907.0,STARLINK-5063,PAYLOAD,2023-05-27 11:02:13,15.08839297,0.0001111,53.2154,210.2044,91.6218,268.4902,-1.3979e-05,-5.1e-06,0.0,0 STARLINK-5063,1 53907U 22119X   23147.45987280 -.00000510  00000-0 -13979-4 0  9990,2 53907  53.2154 210.2044 0001111  91.6218 268.4902 15.08839297 37700,6917.883,95.438,540.516,538.979,0.0
53907.0,STARLINK-5063,PAYLOAD,2023-05-27 20:34:31,15.08837661,0.0001089,53.2153,208.4203,90.4382,269.6735,-1.9534e-05,-5.99e-06,0.0,0 STARLINK-5063,1 53907U 22119X   23147.85731414 -.00000599  00000-0 -19534-4 0  9990,2 53907  53.2153 208.4203 0001089  90.4382 269.6735 15.08837661 38181,6917.888,95.438,540.506,538.999,0.0
53907.0,STARLINK-5063,PAYLOAD,2023-05-28 04:31:27,15.08836197,0.0001078,53.2151,206.9332,89.6528,270.4587,2.3469e-05,8.6e-07,0.0,0 STARLINK-5063,1 53907U 22119X   23148.18851399  .00000086  00000-0  23469-4 0  9993,2 53907  53.2151 206.9332 0001078  89.6528 270.4587 15.08836197 38239,6917.892,95.438,540.503,539.011,0.0
